STARLINK-34817          
1 65362U 25190M   26188.70250238  .00018064  00000+0  54449-3 0  9998
2 65362  53.1600 329.0375 0001359  98.6387 261.4770 15.34399059 48150
STARLINK-34797          
1 65363U 25190N   26188.42100658  .00014010  00000+0  42486-3 0  9993
2 65363  53.1579 330.8361 0000684  97.4642 262.6438 15.34410027 48100
STARLINK-34729          
1 65364U 25190P   26188.72274649  .00017625  00000+0  60522-3 0  9995
2 65364  53.1624 330.5809 0000939  79.8883 280.2224 15.30230421 48552
STARLINK-34710          
1 65365U 25190Q   26188.43205018  .00018182  00000+0  62440-3 0  9998
2 65365  53.1583 332.3194 0000927 121.1728 238.9364 15.30204785 47615
STARLINK-34943          
1 65366U 25190R   26188.68365189  .00024447  00000+0  73219-3 0  9999
2 65366  53.1585 329.6310 0000578 118.2308 241.8753 15.34405645 47673
STARLINK-34946          
1 65367U 25190S   26188.74036786  .00023023  00000+0  69112-3 0  9991
2 65367  53.1587 329.2688 0001109 144.9841 215.1234 15.34369095 48159
STARLINK-34259          
1 65368U 25190T   26188.66892803  .00031955  00000+0  95256-3 0  9994
2 65368  53.1605 329.5406 0001350  91.0314 269.0843 15.34410105 48149
STARLINK-34913          
1 65369U 25190U   26188.43363341  .00018545  00000+0  55840-3 0  9995
2 65369  53.1583 330.9121 0000784  93.2889 266.8203 15.34413096 48109
STARLINK-34870          
1 65370U 25190V   26188.72380700  .00015671  00000+0  53972-3 0  9998
2 65370  53.1609 330.5852 0000894  91.8660 268.2443 15.30222708 47666
STARLINK-34869          
1 65371U 25190W   26188.39933639  .00023186  00000+0  79260-3 0  9995
2 65371  53.1610 332.1120 0001010  94.4684 265.6432 15.30196186 48087
STARLINK-34903          
1 65372U 25190X   26188.71324943  .00012670  00000+0  43909-3 0  9991
2 65372  53.1631 330.5106 0000955  90.4670 269.6441 15.30205969 48135
STARLINK-34891          
1 65373U 25190Y   26188.71513097  .00015733  00000+0  47556-3 0  9997
2 65373  53.1614 329.1073 0000906  81.2374 278.8731 15.34415795 47631
STARLINK-34900          
1 65374U 25190Z   26188.71641719  .00014171  00000+0  48943-3 0  9997
2 65374  53.1620 330.5333 0000654  77.7590 282.3484 15.30215881 47617
STARLINK-34305          
1 65375U 25190AA  26188.71430810  .00010307  00000+0  35950-3 0  9997
2 65375  53.1614 330.5178 0001029  69.4824 290.6287 15.30211154 48133
STARLINK-34249          
1 65376U 25190AB  26188.70671446  .00012105  00000+0  36868-3 0  9996
2 65376  53.1604 329.0523 0000746  88.9535 271.1553 15.34411256 48577
STARLINK-34879          
1 65377U 25190AC  26188.70586326  .00011655  00000+0  40479-3 0  9991
2 65377  53.1595 330.4651 0000924  78.2874 281.8231 15.30217269 48138
STARLINK-34912          
1 65378U 25190AD  26188.43826626  .00013673  00000+0  47268-3 0  9997
2 65378  53.1586 331.6373 0000675  95.4322 264.6756 15.30215342 48091
STARLINK-34985          
1 65379U 25191A   26188.76328172  .00001852  00000+0  13220-3 0  9995
2 65379  97.2857  58.0506 0002722  88.1860 271.9679 15.05658363 48339
STARLINK-35051          
1 65380U 25191B   26188.06270203  .00001410  00000+0  10155-3 0  9995
2 65380  97.2853  57.4731 0002225  85.6736 274.4745 15.05663649 48247
STARLINK-35028          
1 65381U 25191C   26188.11255764  .00001038  00000+0  75812-4 0  9995
2 65381  97.2864  57.5608 0002428  94.4225 265.7280 15.05645082 48248
STARLINK-35032          
1 65382U 25191D   26188.34793848  .00000381  00000+0  30320-4 0  9996
2 65382  97.2856  57.6986 0002991  77.0069 283.1492 15.05645051 48276
STARLINK-35054          
1 65383U 25191E   26188.10700803  .00003961  00000+0  27822-3 0  9999
2 65383  97.2855  57.4137 0002522  86.0841 274.0675 15.05656658 48233
STARLINK-35012          
1 65384U 25191F   26187.62517365 -.00001797  00000+0 -12066-3 0  9996
2 65384  97.2851  56.9947 0002264  89.6851 270.4636 15.05656068 48160
STARLINK-35073          
1 65385U 25191G   26187.60857730  .00001162  00000+0  84429-4 0  9995
2 65385  97.2851  57.0182 0002537  86.9723 273.1795 15.05653121 48168
STARLINK-35066          
1 65386U 25191H   26187.65564972  .00004390  00000+0  30799-3 0  9990
2 65386  97.2861  57.1098 0001538  94.6888 265.4515 15.05648413 48178
STARLINK-34703          
1 65387U 25191J   26188.06825310  .00004029  00000+0  28299-3 0  9994
2 65387  97.2843  57.4656 0002541  82.6504 277.5013 15.05649980 48233
STARLINK-34957          
1 65388U 25191K   26188.11531940  .00001681  00000+0  12038-3 0  9999
2 65388  97.2872  57.5573 0002038  88.0966 272.0495 15.05653610 48248
STARLINK-34993          
1 65389U 25191L   26187.62795893  .00001474  00000+0  10605-3 0  9992
2 65389  97.2853  56.9915 0002714  73.5109 286.6417 15.05652330 48164
STARLINK-35083          
1 65390U 25191M   26187.63902376  .00001983  00000+0  14129-3 0  9991
2 65390  97.2839  56.9786 0003088  41.2026 318.9434 15.05659744 48165
STARLINK-34786          
1 65391U 25191N   26188.38945268  .00000449  00000+0  35023-4 0  9995
2 65391  97.2883  57.7946 0001992 101.8092 258.3359 15.05665715 48281
