OBJECT_NAME,OBJECT_ID,EPOCH,MEAN_MOTION,ECCENTRICITY,INCLINATION,RA_OF_ASC_NODE,ARG_OF_PERICENTER,MEAN_ANOMALY,EPHEMERIS_TYPE,CLASSIFICATION_TYPE,NORAD_CAT_ID,ELEMENT_SET_NO,REV_AT_EPOCH,BSTAR,MEAN_MOTION_DOT,MEAN_MOTION_DDOT
STARLINK-34817,2025-190M,2026-07-07T16:51:36.205632,15.34399059,.0001359,53.1600,329.0375,98.6387,261.4770,0,U,65362,999,4815,.54449E-3,.18064E-3,0
STARLINK-34797,2025-190N,2026-07-07T10:06:14.968512,15.34410027,.00006843,53.1579,330.8361,97.4642,262.6438,0,U,65363,999,4810,.42486007E-3,.1401E-3,0
STARLINK-34729,2025-190P,2026-07-07T17:20:45.296736,15.30230421,.0000939,53.1624,330.5809,79.8883,280.2224,0,U,65364,999,4855,.60522E-3,.17625E-3,0
STARLINK-34710,2025-190Q,2026-07-07T10:22:09.135552,15.30204785,.00009278,53.1583,332.3194,121.1728,238.9364,0,U,65365,999,4761,.62439569E-3,.18182E-3,0
STARLINK-34943,2025-190R,2026-07-07T16:24:27.523296,15.34405645,.0000578,53.1585,329.6310,118.2308,241.8753,0,U,65366,999,4767,.73219E-3,.24447E-3,0
STARLINK-34946,2025-190S,2026-07-07T17:46:07.783104,15.34369095,.0001109,53.1587,329.2688,144.9841,215.1234,0,U,65367,999,4815,.69112E-3,.23023E-3,0
STARLINK-34259,2025-190T,2026-07-07T16:03:15.381792,15.34410105,.000135,53.1605,329.5406,91.0314,269.0843,0,U,65368,999,4814,.95256E-3,.31955E-3,0
STARLINK-34913,2025-190U,2026-07-07T10:24:25.926624,15.34413096,.00007844,53.1583,330.9121,93.2889,266.8203,0,U,65369,999,4810,.55840074E-3,.18545E-3,0
STARLINK-34870,2025-190V,2026-07-07T17:22:16.924800,15.30222708,.0000894,53.1609,330.5852,91.8660,268.2443,0,U,65370,999,4766,.53972E-3,.15671E-3,0
STARLINK-34869,2025-190W,2026-07-07T09:35:02.664096,15.30196186,.00010105,53.1610,332.1120,94.4684,265.6432,0,U,65371,999,4808,.79259848E-3,.23186E-3,0
STARLINK-34903,2025-190X,2026-07-07T17:07:04.750752,15.30205969,.0000955,53.1631,330.5106,90.4670,269.6441,0,U,65372,999,4813,.43909E-3,.1267E-3,0
STARLINK-34891,2025-190Y,2026-07-07T17:09:47.315808,15.34415795,.0000906,53.1614,329.1073,81.2374,278.8731,0,U,65373,999,4763,.47556E-3,.15733E-3,0
STARLINK-34900,2025-190Z,2026-07-07T17:11:38.445216,15.30215881,.0000654,53.1620,330.5333,77.7590,282.3484,0,U,65374,999,4761,.48943E-3,.14171E-3,0
STARLINK-34305,2025-190AA,2026-07-07T17:08:36.219840,15.30211154,.0001029,53.1614,330.5178,69.4824,290.6287,0,U,65375,999,4813,.3595E-3,.10307E-3,0
STARLINK-34249,2025-190AB,2026-07-07T16:57:40.129344,15.34411256,.0000746,53.1604,329.0523,88.9535,271.1553,0,U,65376,999,4857,.36868E-3,.12105E-3,0
STARLINK-34879,2025-190AC,2026-07-07T16:56:26.585664,15.30217269,.0000924,53.1595,330.4651,78.2874,281.8231,0,U,65377,999,4813,.40479E-3,.11655E-3,0
STARLINK-34912,2025-190AD,2026-07-07T10:31:06.204864,15.30215342,.00006758,53.1586,331.6373,95.4322,264.6756,0,U,65378,999,4809,.47268264E-3,.13673E-3,0
STARLINK-34985,2025-191A,2026-07-07T18:19:07.540608,15.05658363,.0002722,97.2857,58.0506,88.1860,271.9679,0,U,65379,999,4833,.1322E-3,.1852E-4,0
STARLINK-35051,2025-191B,2026-07-07T01:30:17.455392,15.05663649,.00022252,97.2853,57.4731,85.6736,274.4745,0,U,65380,999,4824,.10155023E-3,.141E-4,0
STARLINK-35028,2025-191C,2026-07-07T02:42:04.980096,15.05645082,.00024286,97.2864,57.5608,94.4225,265.7280,0,U,65381,999,4824,.75812224E-4,.1038E-4,0
STARLINK-35032,2025-191D,2026-07-07T08:21:01.884672,15.05645051,.00029913,97.2856,57.6986,77.0069,283.1492,0,U,65382,999,4827,.30320209E-4,.381E-5,0
STARLINK-35054,2025-191E,2026-07-07T02:34:05.493792,15.05656658,.0002522,97.2855,57.4137,86.0841,274.0675,0,U,65383,999,4823,.27822292E-3,.3961E-4,0
STARLINK-35012,2025-191F,2026-07-06T15:00:15.003360,15.05656068,.00022641,97.2851,56.9947,89.6851,270.4636,0,U,65384,999,4816,-.12065808E-3,-.1797E-4,0
STARLINK-35073,2025-191G,2026-07-06T14:36:21.078720,15.05653121,.00025377,97.2851,57.0182,86.9723,273.1795,0,U,65385,999,4816,.84428561E-4,.1162E-4,0
STARLINK-35066,2025-191H,2026-07-06T15:44:08.135808,15.05648413,.00015382,97.2861,57.1098,94.6888,265.4515,0,U,65386,999,4817,.30799116E-3,.439E-4,0
STARLINK-34703,2025-191J,2026-07-07T01:38:17.067840,15.05649980,.00025417,97.2843,57.4656,82.6504,277.5013,0,U,65387,999,4823,.28298631E-3,.4029E-4,0
STARLINK-34957,2025-191K,2026-07-07T02:46:03.596160,15.05653610,.00020386,97.2872,57.5573,88.0966,272.0495,0,U,65388,999,4824,.12038074E-3,.1681E-4,0
STARLINK-34993,2025-191L,2026-07-06T15:04:15.651552,15.05652330,.00027145,97.2853,56.9915,73.5109,286.6417,0,U,65389,999,4816,.10604844E-3,.1474E-4,0
STARLINK-35083,2025-191M,2026-07-06T15:20:11.652864,15.05659744,.00030885,97.2839,56.9786,41.2026,318.9434,0,U,65390,999,4816,.14129014E-3,.1983E-4,0
STARLINK-34786,2025-191N,2026-07-07T09:20:48.711552,15.05665715,.00019924,97.2883,57.7946,101.8092,258.3359,0,U,65391,999,4828,.35023284E-4,.449E-5,0
